{"fetched_at":"2026-04-14T02:26:05Z","count":4877,"tles":[{"name":"NOAA 19","line1":"1 33591U 09005A   26103.20895359  .00000022  00000+0  35642-4 0  9995","line2":"2 33591  98.9550 174.0275 0013286 210.1927 149.8481 14.13463751885301","category":"Weather"},{"name":"NOAA 18","line1":"1 28654U 05018A   26103.29237017  .00000021  00000+0  34333-4 0  9994","line2":"2 28654  98.8118 183.9077 0013751 339.6530  20.4093 14.13717958 77146","category":"Weather"},{"name":"NOAA 20 (JPSS-1)","line1":"1 43013U 17073A   26103.22505233  .00000043  00000+0  41175-4 0  9991","line2":"2 43013  98.7731  43.2777 0002143  90.6057 269.5365 14.19545165435251","category":"Weather"},{"name":"SUOMI NPP","line1":"1 37849U 11061A   26103.28156857  .00000050  00000+0  44747-4 0  9998","line2":"2 37849  98.7911  44.6171 0002390 126.9087 233.2308 14.19503178749233","category":"Weather"},{"name":"NOAA 21 (JPSS-2)","line1":"1 54234U 22150A   26103.18888564  .00000024  00000+0  32234-4 0  9991","line2":"2 54234  98.7593  43.0682 0002392  46.2142 313.9232 14.19561352177329","category":"Weather"}]}