[{"OBJECT_NAME":"NOAA 18","OBJECT_ID":"2005-018A","EPOCH":"2026-04-13T07:01:00.782688","MEAN_MOTION":14.13717958,"ECCENTRICITY":0.00137517,"INCLINATION":98.8118,"RA_OF_ASC_NODE":183.9077,"ARG_OF_PERICENTER":339.653,"MEAN_ANOMALY":20.4093,"EPHEMERIS_TYPE":0,"CLASSIFICATION_TYPE":"U","NORAD_CAT_ID":28654,"ELEMENT_SET_NO":999,"REV_AT_EPOCH":7714,"BSTAR":3.4333278e-5,"MEAN_MOTION_DOT":2.1e-7,"MEAN_MOTION_DDOT":0},{"OBJECT_NAME":"NOAA 19","OBJECT_ID":"2009-005A","EPOCH":"2026-04-13T05:00:53.590176","MEAN_MOTION":14.13463751,"ECCENTRICITY":0.00132861,"INCLINATION":98.955,"RA_OF_ASC_NODE":174.0275,"ARG_OF_PERICENTER":210.1927,"MEAN_ANOMALY":149.8481,"EPHEMERIS_TYPE":0,"CLASSIFICATION_TYPE":"U","NORAD_CAT_ID":33591,"ELEMENT_SET_NO":999,"REV_AT_EPOCH":88530,"BSTAR":3.5641534e-5,"MEAN_MOTION_DOT":2.2e-7,"MEAN_MOTION_DDOT":0},{"OBJECT_NAME":"SUOMI NPP","OBJECT_ID":"2011-061A","EPOCH":"2026-04-13T06:45:27.524448","MEAN_MOTION":14.19503178,"ECCENTRICITY":0.000239,"INCLINATION":98.7911,"RA_OF_ASC_NODE":44.6171,"ARG_OF_PERICENTER":126.9087,"MEAN_ANOMALY":233.2308,"EPHEMERIS_TYPE":0,"CLASSIFICATION_TYPE":"U","NORAD_CAT_ID":37849,"ELEMENT_SET_NO":999,"REV_AT_EPOCH":74923,"BSTAR":4.4746551e-5,"MEAN_MOTION_DOT":5.0e-7,"MEAN_MOTION_DDOT":0},{"OBJECT_NAME":"NOAA 20 (JPSS-1)","OBJECT_ID":"2017-073A","EPOCH":"2026-04-13T05:24:04.521312","MEAN_MOTION":14.19545165,"ECCENTRICITY":0.0002143,"INCLINATION":98.7731,"RA_OF_ASC_NODE":43.2777,"ARG_OF_PERICENTER":90.6057,"MEAN_ANOMALY":269.5365,"EPHEMERIS_TYPE":0,"CLASSIFICATION_TYPE":"U","NORAD_CAT_ID":43013,"ELEMENT_SET_NO":999,"REV_AT_EPOCH":43525,"BSTAR":4.1174976e-5,"MEAN_MOTION_DOT":4.3e-7,"MEAN_MOTION_DDOT":0},{"OBJECT_NAME":"NOAA 21 (JPSS-2)","OBJECT_ID":"2022-150A","EPOCH":"2026-04-13T04:31:59.719296","MEAN_MOTION":14.19561352,"ECCENTRICITY":0.00023926,"INCLINATION":98.7593,"RA_OF_ASC_NODE":43.0682,"ARG_OF_PERICENTER":46.2142,"MEAN_ANOMALY":313.9232,"EPHEMERIS_TYPE":0,"CLASSIFICATION_TYPE":"U","NORAD_CAT_ID":54234,"ELEMENT_SET_NO":999,"REV_AT_EPOCH":17732,"BSTAR":3.2233723e-5,"MEAN_MOTION_DOT":2.4e-7,"MEAN_MOTION_DDOT":0}]
